CAS-2T & KS-1Q          
1 41847U 16066G   20157.37804944  .00000067  00000-0  21428-4 0  9991
2 41847  98.6547 207.7703 0364497 264.9105  91.0392 14.38067638187681
NAYIF-1 (EO-88)         
1 42017U 17008BX  20157.22536077  .00001433  00000-0  57704-4 0  9995
2 42017  97.3602 224.9657 0006579  21.4205 338.7308 15.26471707183687
MAX VALIER SAT          
1 42778U 17036P   20157.38152887  .00000957  00000-0  44027-4 0  9994
2 42778  97.3056 211.3509 0013874  68.6965 291.5751 15.22603705163892
RADFXSAT (FOX-1B)       
1 43017U 17073E   20157.48214728  .00000562  00000-0  48375-4 0  9998
2 43017  97.7238  70.1803 0258553  89.3612 273.7216 14.78922942137398
FOX-1D (AO-92)          
1 43137U 18004AC  20157.46949556  .00000935  00000-0  41389-4 0  9990
2 43137  97.4461 228.7112 0010896  97.2544 262.9932 15.24105327133223
DIWATA-2B               
1 43678U 18084H   20157.53365641 -.00000310  00000-0 -25147-4 0  9996
2 43678  97.8820 275.9380 0009146 209.9355 150.1330 14.91628545 87240
ES'HAIL 2               
1 43700U 18090A   20157.21354240  .00000138  00000-0  00000-0 0  9990
2 43700   0.0158 325.5141 0001420 117.0613 274.2021  1.00268421  5587
FOX-1CLIFF (AO-95)      
1 43770U 18099N   20157.46083693  .00000192  00000-0  22799-4 0  9997
2 43770  97.7059 229.0501 0013415 233.3591 126.6396 14.94981856 82120
ITASAT 1                
1 43786U 18099AE  20157.46047981  .00000084  00000-0  12813-4 0  9990
2 43786  97.7074 229.4607 0014185 226.8338 133.1698 14.95321785 82146
JY1SAT (JO-97)          
1 43803U 18099AX  20157.47643498  .00000698  00000-0  68101-4 0  9998
2 43803  97.7036 229.2980 0014077 226.5434 133.4617 14.95498306 82148
PSAT2 (NO-104)          
1 44354U 19036R   20157.17531719  .00006302  00000-0  89041-4 0  9995
2 44354  28.5305 101.2204 0364795 179.8819 180.1898 15.03360461 51978
BRICSAT2 (NO-103)       
1 44355U 19036S   20157.49077828  .00010535  00000-0  14484-3 0  9998
2 44355  28.5314  91.1004 0344087 196.3581 162.5659 15.08595876 52106
JAISAT-1                
1 44419U 19038F   20157.45064736  .00000730  00000-0  45153-4 0  9995
2 44419  97.5378 119.1878 0021813 167.6081 192.5691 15.12765960 50787
DUCHIFAT-3              
1 44854U 19089C   20157.37176579  .00000232  00000-0  25160-4 0  9997
2 44854  36.9661 169.7519 0009260 324.0241  35.9884 14.99060955 26484
RS-44 & BREEZE-KM R/B   
1 44909U 19096E   20157.31800908  .00000031  00000-0  87515-4 0  9999
2 44909  82.5218   3.3805 0216321 254.8289 102.8797 12.79707746 20631
ORBITAL FACTORY 2 (OF-2)
1 45113U 19071C   20157.42677614  .00001526  00000-0  58196-4 0  9991
2 45113  51.6441  61.6442 0013308  17.1972 342.9458 15.33311825 19289
HUSKYSAT-1              
1 45119U 19071J   20157.14622512  .00001714  00000-0  63515-4 0  9993
2 45119  51.6447  62.7717 0012548  12.7084 347.4212 15.33533264 19234
